STARLINK-31176          
1 58745U 24005T   26068.48997124 -.00003501  00000+0 -12083-3 0  9993
2 58745  43.0008 220.8392 0001327 240.5194 119.5525 15.26762477120457
BANDWAGON-4 OBJECT N    
1 66305U 25248N   26068.03100984  .00024115  00000+0  97341-3 0  9997
2 66305  45.4084 294.9612 0013521 206.7837 153.2354 15.24369076 17177
